start=new Date('2022-04-12T00:00:00.000Z').valueOf();
sats=[{"PERIAPSIS":"546.077","SEMIMAJOR_AXIS":"6925.344","DECAY_DATE":null,"FILE":"3397723","MEAN_ANOMALY":"297.6431","INCLINATION":"53.0543","COUNTRY_CODE":"US","CENTER_NAME":"EARTH","GP_ID":"201014307","TLE_LINE1":"1 44754U 19074AT  22101.74626158  .00002063  00000-0  15734-3 0  9994","REF_FRAME":"TEME","SITE":"AFETR","RA_OF_ASC_NODE":"116.9187","BSTAR":"0.00015734000000","EPHEMERIS_TYPE":"0","OBJECT_TYPE":"PAYLOAD","ELEMENT_SET_NO":"999","TIME_SYSTEM":"UTC","MEAN_MOTION_DDOT":"0.0000000000000","NORAD_CAT_ID":"44754","ECCENTRICITY":"0.00016350","APOAPSIS":"548.341","TLE_LINE2":"2 44754  53.0543 116.9187 0001635  62.4724 297.6431 15.06401461133523","MEAN_ELEMENT_THEORY":"SGP4","PERIOD":"95.592","OBJECT_ID":"2019-074AT","ARG_OF_PERICENTER":"62.4724","MEAN_MOTION":"15.06401461","EPOCH":"2022-04-11T17:54:37.000512","CLASSIFICATION_TYPE":"U","MEAN_MOTION_DOT":"0.00002063","REV_AT_EPOCH":"13352","RCS_SIZE":"LARGE","OBJECT_NAME":"STARLINK-1049","LAUNCH_DATE":"2019-11-11"},{"ECCENTRICITY":"0.00018060","APOAPSIS":"548.482","TLE_LINE2":"2 44757  53.0537 136.6030 0001806  51.2621 308.8529 15.06394300133253","MEAN_ELEMENT_THEORY":"SGP4","PERIOD":"95.593","ARG_OF_PERICENTER":"51.2621","OBJECT_ID":"2019-074AW","MEAN_MOTION":"15.06394300","EPOCH":"2022-04-11T19:32:49.158240","CLASSIFICATION_TYPE":"U","MEAN_MOTION_DOT":"0.00001591","REV_AT_EPOCH":"13325","RCS_SIZE":"LARGE","OBJECT_NAME":"STARLINK-1052","LAUNCH_DATE":"2019-11-11","PERIAPSIS":"545.980","SEMIMAJOR_AXIS":"6925.366","DECAY_DATE":null,"FILE":"3397723","INCLINATION":"53.0537","MEAN_ANOMALY":"308.8529","COUNTRY_CODE":"US","GP_ID":"201014557","CENTER_NAME":"EARTH","TLE_LINE1":"1 44757U 19074AW  22101.81445785  .00001591  00000-0  12569-3 0  9998","REF_FRAME":"TEME","SITE":"AFETR","RA_OF_ASC_NODE":"136.6030","BSTAR":"0.00012569000000","EPHEMERIS_TYPE":"0","OBJECT_TYPE":"PAYLOAD","ELEMENT_SET_NO":"999","TIME_SYSTEM":"UTC","MEAN_MOTION_DDOT":"0.0000000000000","NORAD_CAT_ID":"44757"},{"MEAN_MOTION_DOT":"0.00000689","CLASSIFICATION_TYPE":"U","REV_AT_EPOCH":"13294","OBJECT_NAME":"STARLINK-1053","RCS_SIZE":"LARGE","LAUNCH_DATE":"2019-11-11","APOAPSIS":"548.119","ECCENTRICITY":"0.00012600","TLE_LINE2":"2 44758  53.0571 157.7615 0001260  72.8092 287.3035 15.06389419132943","OBJECT_ID":"2019-074AX","ARG_OF_PERICENTER":"72.8092","MEAN_ELEMENT_THEORY":"SGP4","PERIOD":"95.593","MEAN_MOTION":"15.06389419","EPOCH":"2022-04-11T13:22:34.244256","RA_OF_ASC_NODE":"157.7615","BSTAR":"0.00006515200000","OBJECT_TYPE":"PAYLOAD","EPHEMERIS_TYPE":"0","MEAN_MOTION_DDOT":"0.0000000000000","NORAD_CAT_ID":"44758","ELEMENT_SET_NO":"999","TIME_SYSTEM":"UTC","PERIAPSIS":"546.373","SEMIMAJOR_AXIS":"6925.381","FILE":"3397723","DECAY_DATE":null,"COUNTRY_CODE":"US","MEAN_ANOMALY":"287.3035","INCLINATION":"53.0571","CENTER_NAME":"EARTH","GP_ID":"201015309","TLE_LINE1":"1 44758U 19074AX  22101.55734079  .00000689  00000-0  65152-4 0  9991","SITE":"AFETR","REF_FRAME":"TEME"},{"LAUNCH_DATE":"2019-11-11","OBJECT_NAME":"STARLINK-1054","RCS_SIZE":"LARGE","REV_AT_EPOCH":"13310","MEAN_MOTION_DOT":"0.00001796","CLASSIFICATION_TYPE":"U","EPOCH":"2022-04-11T11:32:28.180608","MEAN_MOTION":"15.06393038","OBJECT_ID":"2019-074AY","ARG_OF_PERICENTER":"60.9983","MEAN_ELEMENT_THEORY":"SGP4","PERIOD":"95.593","TLE_LINE2":"2 44759  53.0525 158.1018 0001589  60.9983 299.1165 15.06393038133102","APOAPSIS":"548.335","ECCENTRICITY":"0.00015890","MEAN_MOTION_DDOT":"0.0000000000000","NORAD_CAT_ID":"44759","ELEMENT_SET_NO":"999","TIME_SYSTEM":"UTC","OBJECT_TYPE":"PAYLOAD","EPHEMERIS_TYPE":"0","BSTAR":"0.00013947000000","RA_OF_ASC_NODE":"158.1018","SITE":"AFETR","REF_FRAME":"TEME","TLE_LINE1":"1 44759U 19074AY  22101.48088172  .00001796  00000-0  13947-3 0  9994","CENTER_NAME":"EARTH","GP_ID":"200957734","COUNTRY_CODE":"US","MEAN_ANOMALY":"299.1165","INCLINATION":"53.0525","FILE":"3397130","DECAY_DATE":null,"SEMIMAJOR_AXIS":"6925.370","PERIAPSIS":"546.134"},{"EPOCH":"2022-04-11T12:46:46.920864","ECCENTRICITY":"0.00018950","APOAPSIS":"548.535","TLE_LINE2":"2 44760  53.0543 157.8634 0001895  49.4128 310.7026 15.06396959132949","PERIOD":"95.592","MEAN_ELEMENT_THEORY":"SGP4","OBJECT_ID":"2019-074AZ","ARG_OF_PERICENTER":"49.4128","MEAN_MOTION":"15.06396959","REV_AT_EPOCH":"13294","RCS_SIZE":"LARGE","OBJECT_NAME":"STARLINK-1055","LAUNCH_DATE":"2019-11-11","CLASSIFICATION_TYPE":"U","MEAN_MOTION_DOT":"0.00001766","CENTER_NAME":"EARTH","GP_ID":"200981742","TLE_LINE1":"1 44760U 19074AZ  22101.53248751  .00001766  00000-0  13746-3 0  9997","REF_FRAME":"TEME","SITE":"AFETR","SEMIMAJOR_AXIS":"6925.358","PERIAPSIS":"545.911","DECAY_DATE":null,"FILE":"3397378","MEAN_ANOMALY":"310.7026","INCLINATION":"53.0543","COUNTRY_CODE":"US","BSTAR":"0.00013746000000","EPHEMERIS_TYPE":"0","OBJECT_TYPE":"PAYLOAD","ELEMENT_SET_NO":"999","TIME_SYSTEM":"UTC","MEAN_MOTION_DDOT":"0.0000000000000","NORAD_CAT_ID":"44760","RA_OF_ASC_NODE":"157.8634"},{"CLASSIFICATION_TYPE":"U","MEAN_MOTION_DOT":"-0.00000583","REV_AT_EPOCH":"13296","RCS_SIZE":"LARGE","OBJECT_NAME":"STARLINK-1056","LAUNCH_DATE":"2019-11-11","ECCENTRICITY":"0.00015200","APOAPSIS":"548.286","TLE_LINE2":"2 44761  53.0534 157.2197 0001520  52.5527 307.5600 15.06393668132969","PERIOD":"95.593","MEAN_ELEMENT_THEORY":"SGP4","ARG_OF_PERICENTER":"52.5527","OBJECT_ID":"2019-074BA","MEAN_MOTION":"15.06393668","EPOCH":"2022-04-11T16:13:46.577856","RA_OF_ASC_NODE":"157.2197","BSTAR":"-0.00002024100000","EPHEMERIS_TYPE":"0","OBJECT_TYPE":"PAYLOAD","ELEMENT_SET_NO":"999","TIME_SYSTEM":"UTC","MEAN_MOTION_DDOT":"0.0000000000000","NORAD_CAT_ID":"44761","SEMIMAJOR_AXIS":"6925.368","PERIAPSIS":"546.180","DECAY_DATE":null,"FILE":"3397723","INCLINATION":"53.0534","MEAN_ANOMALY":"307.5600","COUNTRY_CODE":"US","GP_ID":"201014058","CENTER_NAME":"EARTH","TLE_LINE1":"1 44761U 19074BA  22101.67623354 -.00000583  00000-0 -20241-4 0  9996","REF_FRAME":"TEME","SITE":"AFETR"},{"REV_AT_EPOCH":"13325","RCS_SIZE":"LARGE","OBJECT_NAME":"STARLINK-1057","LAUNCH_DATE":"2019-11-11","CLASSIFICATION_TYPE":"U","MEAN_MOTION_DOT":"0.00000061","EPOCH":"2022-04-11T19:27:31.151808","ECCENTRICITY":"0.00017650","APOAPSIS":"548.457","TLE_LINE2":"2 44762  53.0551 136.6046 0001765  46.8289 313.2847 15.06393061133252","MEAN_ELEMENT_THEORY":"SGP4","PERIOD":"95.593","OBJECT_ID":"2019-074BB","ARG_OF_PERICENTER":"46.8289","MEAN_MOTION":"15.06393061","BSTAR":"0.00002297500000","EPHEMERIS_TYPE":"0","OBJECT_TYPE":"PAYLOAD","ELEMENT_SET_NO":"999","TIME_SYSTEM":"UTC","MEAN_MOTION_DDOT":"0.0000000000000","NORAD_CAT_ID":"44762","RA_OF_ASC_NODE":"136.6046","CENTER_NAME":"EARTH","GP_ID":"201014810","TLE_LINE1":"1 44762U 19074BB  22101.81077722  .00000061  00000-0  22975-4 0  9990","REF_FRAME":"TEME","SITE":"AFETR","PERIAPSIS":"546.012","SEMIMAJOR_AXIS":"6925.370","DECAY_DATE":null,"FILE":"3397723","INCLINATION":"53.0551","MEAN_ANOMALY":"313.2847","COUNTRY_CODE":"US"},{"REV_AT_EPOCH":"13295","RCS_SIZE":"LARGE","OBJECT_NAME":"STARLINK-1058","LAUNCH_DATE":"2019-11-11","CLASSIFICATION_TYPE":"U","MEAN_MOTION_DOT":"-0.00000458","EPOCH":"2022-04-11T15:10:04.482048","ECCENTRICITY":"0.00017860","APOAPSIS":"548.453","TLE_LINE2":"2 44763  53.0538 157.4321 0001786  40.4442 319.6680 15.06399136132959","MEAN_ELEMENT_THEORY":"SGP4","PERIOD":"95.592","ARG_OF_PERICENTER":"40.4442","OBJECT_ID":"2019-074BC","MEAN_MOTION":"15.06399136","BSTAR":"-0.00001184600000","EPHEMERIS_TYPE":"0","OBJECT_TYPE":"PAYLOAD","ELEMENT_SET_NO":"999","TIME_SYSTEM":"UTC","MEAN_MOTION_DDOT":"0.0000000000000","NORAD_CAT_ID":"44763","RA_OF_ASC_NODE":"157.4321","CENTER_NAME":"EARTH","GP_ID":"201015560","TLE_LINE1":"1 44763U 19074BC  22101.63199632 -.00000458  00000-0 -11846-4 0  9993","REF_FRAME":"TEME","SITE":"AFETR","SEMIMAJOR_AXIS":"6925.351","PERIAPSIS":"545.979","DECAY_DATE":null,"FILE":"3397723","INCLINATION":"53.0538","MEAN_ANOMALY":"319.6680","COUNTRY_CODE":"US"},{"BSTAR":"0.00005975500000","OBJECT_TYPE":"PAYLOAD","EPHEMERIS_TYPE":"0","MEAN_MOTION_DDOT":"0.0000000000000","NORAD_CAT_ID":"44764","TIME_SYSTEM":"UTC","ELEMENT_SET_NO":"999","RA_OF_ASC_NODE":"136.6380","GP_ID":"201014308","CENTER_NAME":"EARTH","TLE_LINE1":"1 44764U 19074BD  22101.80708790  .00000609  00000-0  59755-4 0  9991","SITE":"AFETR","REF_FRAME":"TEME","PERIAPSIS":"545.935","SEMIMAJOR_AXIS":"6925.337","FILE":"3397723","DECAY_DATE":null,"COUNTRY_CODE":"US","MEAN_ANOMALY":"313.3265","INCLINATION":"53.0535","REV_AT_EPOCH":"13325","OBJECT_NAME":"STARLINK-1059","RCS_SIZE":"LARGE","LAUNCH_DATE":"2019-11-11","MEAN_MOTION_DOT":"0.00000609","CLASSIFICATION_TYPE":"U","EPOCH":"2022-04-11T19:22:12.394560","APOAPSIS":"548.469","ECCENTRICITY":"0.00018290","TLE_LINE2":"2 44764  53.0535 136.6380 0001829  46.7876 313.3265 15.06403754133255","ARG_OF_PERICENTER":"46.7876","OBJECT_ID":"2019-074BD","PERIOD":"95.592","MEAN_ELEMENT_THEORY":"SGP4","MEAN_MOTION":"15.06403754"},{"MEAN_MOTION":"15.06402669","MEAN_ELEMENT_THEORY":"SGP4","PERIOD":"95.592","OBJECT_ID":"2019-074BE","ARG_OF_PERICENTER":"63.4542","TLE_LINE2":"2 44765  53.0540 136.5398 0001590  63.4542 296.6610 15.06402669133252","ECCENTRICITY":"0.00015900","APOAPSIS":"548.307","EPOCH":"2022-04-11T19:48:44.229888","CLASSIFICATION_TYPE":"U","MEAN_MOTION_DOT":"0.00001493","LAUNCH_DATE":"2019-11-11","RCS_SIZE":"LARGE","OBJECT_NAME":"STARLINK-1060","REV_AT_EPOCH":"13325","MEAN_ANOMALY":"296.6610","INCLINATION":"53.0540","COUNTRY_CODE":"US","DECAY_DATE":null,"FILE":"3397723","PERIAPSIS":"546.104","SEMIMAJOR_AXIS":"6925.340","REF_FRAME":"TEME","SITE":"AFETR","TLE_LINE1":"1 44765U 19074BE  22101.82551192  .00001493  00000-0  11911-3 0  9999","GP_ID":"201014558","CENTER_NAME":"EARTH","RA_OF_ASC_NODE":"136.5398","TIME_SYSTEM":"UTC","ELEMENT_SET_NO":"999","NORAD_CAT_ID":"44765","MEAN_MOTION_DDOT":"0.0000000000000","EPHEMERIS_TYPE":"0","OBJECT_TYPE":"PAYLOAD","BSTAR":"0.00011911000000"}];
